HAWK-5A                 
1 52757U 22057AB  26199.70240933  .00010026  00000+0  16600-3 0  9991
2 52757  97.6636   0.6166 0003032 321.3858  38.7177 15.52399946231239
HAWK-6B                 
1 55324U 23011A   26198.93568646  .00002570  00000+0  11461-3 0  9998
2 55324  40.4976 172.6890 0004472 254.5549 105.4766 15.23169163192531
HAWK-6C                 
1 55326U 23011C   26199.26288320  .00002222  00000+0  10020-3 0  9999
2 55326  40.4967 167.6154 0004974 250.3835 109.6437 15.23170261192597
HAWK-6A                 
1 55327U 23011D   26199.19735523  .00002317  00000+0  10414-3 0  9996
2 55327  40.4977 169.6247 0004620 247.0466 112.9856 15.23169943192581
HAWK-7A                 
1 56191U 23054P   26199.68519509  .00002769  00000+0  10512-3 0  9991
2 56191  97.2654  86.2214 0001106 310.3898  49.7245 15.27653187181837
HAWK-7B                 
1 56193U 23054R   26199.68512971  .00002795  00000+0  10609-3 0  9995
2 56193  97.2680  84.4963 0000951   8.4810 351.6445 15.27651681181839
HAWK-7C                 
1 56200U 23054Y   26199.68500080  .00002762  00000+0  10486-3 0  9999
2 56200  97.2657  85.2553 0000571 335.2444  24.8768 15.27654182181834
